[{"OBJECT_NAME":"POLYITAN-1","OBJECT_ID":"2014-033AJ","EPOCH":"2026-03-09T22:27:50.258304","MEAN_MOTION":15.29568085,"ECCENTRICITY":0.00093607,"INCLINATION":98.1053,"RA_OF_ASC_NODE":86.0432,"ARG_OF_PERICENTER":127.248,"MEAN_ANOMALY":232.9614,"EPHEMERIS_TYPE":0,"CLASSIFICATION_TYPE":"U","NORAD_CAT_ID":40042,"ELEMENT_SET_NO":999,"REV_AT_EPOCH":63840,"BSTAR":0.00083772474,"MEAN_MOTION_DOT":0.00024003,"MEAN_MOTION_DDOT":0},{"OBJECT_NAME":"STARLINK-33706","OBJECT_ID":"2025-070B","EPOCH":"2026-03-09T13:34:40.616832","MEAN_MOTION":15.27573082,"ECCENTRICITY":0.000198,"INCLINATION":42.999,"RA_OF_ASC_NODE":260.8327,"ARG_OF_PERICENTER":301.9874,"MEAN_ANOMALY":58.0785,"EPHEMERIS_TYPE":0,"CLASSIFICATION_TYPE":"U","NORAD_CAT_ID":63461,"ELEMENT_SET_NO":999,"REV_AT_EPOCH":5295,"BSTAR":0.0012348136,"MEAN_MOTION_DOT":0.00033867,"MEAN_MOTION_DDOT":0}]
